ONEWEB-0027             
1 45432U 20020J   24004.55051089  .00000058  00000+0  11581-3 0  9996
2 45432  87.9199 183.7408 0001730  75.6513 284.4811 13.17646162188543
ONEWEB-0064             
1 45433U 20020K   24004.60563429  .00000544  00000+0  14994-2 0  9999
2 45433  87.8959 198.8575 0001752  84.3198 275.8130 13.11416420185438
ONEWEB-0018             
1 45434U 20020L   24004.56178760 -.00000532  00000+0 -15367-2 0  9999
2 45434  87.8958 198.8605 0001432  94.1615 265.9676 13.11416215185370
ONEWEB-0083             
1 45435U 20020M   24004.62673913 -.00001189  00000+0 -33903-2 0  9992
2 45435  87.8959 198.8271 0002004  96.1685 263.9671 13.11419682185437
ONEWEB-0095             
1 45436U 20020N   24004.54246887  .00000064  00000+0  14400-3 0  9991
2 45436  87.8956 198.8832 0001315  72.7990 287.3282 13.11415569185417
ONEWEB-0092             
1 45437U 20020P   24004.58614151  .00000222  00000+0  59089-3 0  9997
2 45437  87.8959 198.8539 0001291  74.1782 285.9488 13.11420477185532
ONEWEB-0085             
1 45438U 20020Q   24004.54393884 -.00000062  00000+0 -21197-3 0  9994
2 45438  87.8960 198.8661 0001595  92.1844 267.9467 13.11414767185416
ONEWEB-0096             
1 45439U 20020R   24004.55205064 -.00000212  00000+0 -63368-3 0  9991
2 45439  87.8958 198.8371 0001437  97.1628 262.9664 13.11414637185401
